CORAL                   
1 67684U 98067YA  26090.02130325  .00107484  00000+0  13874-2 0  9992
2 67684  51.6301 324.8554 0012998 253.1884 106.7683 15.58042786  8117
GXIBA-1                 
1 67685U 98067YB  26090.08453778  .00056311  00000+0  84686-3 0  9991
2 67685  51.6316 325.2780 0012136 260.3395  99.6225 15.54210911  8116
UITMSAT-2               
1 67686U 98067YC  26090.06851227  .00073306  00000+0  10596-2 0  9992
2 67686  51.6313 325.1732 0009294 232.9927 127.0214 15.55217837  8116
HMU-SAT2                
1 67687U 98067YD  26090.02552815  .00054096  00000+0  82322-3 0  9992
2 67687  51.6319 325.6365 0008715 235.5876 124.4291 15.53944298  8021
LEOPARD                 
1 67688U 98067YE  26089.94726755  .00064267  00000+0  94733-3 0  9998
2 67688  51.6318 325.8641 0008930 232.9146 127.1029 15.54742267  8011
CREW DRAGON 12          
1 67796U 26031A   26090.13309952  .00011434  00000+0  21777-3 0  9995
2 67796  51.6341 326.3497 0006203 253.7499 106.2807 15.48671303559619
PROGRESS-MS 33          
1 68319U 26058A   26090.13309952  .00011434  00000+0  21777-3 0  9996
2 68319  51.6341 326.3497 0006203 253.7499 106.2807 15.48671303  1129
